NOAA 15                 
1 25338U 98030A   20213.92011939  .00000069  00000-0  47595-4 0  9992
2 25338  98.7148 238.7397 0011351 129.8086 230.4094 14.25982531155311
DMSP 5D-3 F15 (USA 147) 
1 25991U 99067A   20213.94399295 -.00000111  00000-0 -32810-4 0  9998
2 25991  98.9727 185.6588 0009655 340.9380  85.6931 14.16477614 66727
METEOSAT-8 (MSG-1)      
1 27509U 02040B   20213.13799296  .00000119  00000-0  00000-0 0  9994
2 27509   6.7987  53.9172 0001683  68.8621 277.6260  1.00265109 65722
DMSP 5D-3 F16 (USA 172) 
1 28054U 03048A   20213.89507446 -.00000107  00000-0 -33020-4 0  9997
2 28054  98.9147 192.8078 0008555  95.4399 324.1762 14.13650242866065
NOAA 18                 
1 28654U 05018A   20213.85965144  .00000069  00000-0  62069-4 0  9991
2 28654  99.0407 270.6966 0015354 105.7367 254.5499 14.12528744783182
METEOSAT-9 (MSG-2)      
1 28912U 05049B   20213.84585813 -.00000002  00000-0  00000-0 0  9993
2 28912   4.5163  69.9767 0002649  20.0252 167.6953  1.00273316 53513
FORMOSAT-3 FM6          
1 29047U 06011A   20213.86614427  .00000035  00000-0  29874-4 0  9998
2 29047  71.9789  19.3420 0050895 343.7339  16.2161 14.28744447747665
FORMOSAT-3 FM1          
1 29048U 06011B   20213.67583941  .00000042  00000-0  32951-4 0  9992
2 29048  71.9667 290.5905 0045396 302.5988  57.0770 14.28707751750126
FORMOSAT-3 FM5          
1 29049U 06011C   20213.88442606  .00000019  00000-0  23717-4 0  9992
2 29049  72.0208 102.0657 0035934 327.5201  32.3724 14.28790755745948
FORMOSAT-3 FM3          
1 29050U 06011D   20213.50469275  .00000082  00000-0  27647-4 0  9990
2 29050  72.0142 244.4294 0051687 245.8722 113.7020 14.58933143762853
FORMOSAT-3 FM4          
1 29051U 06011E   20213.81346407  .00000027  00000-0  26468-4 0  9995
2 29051  72.0062   4.1760 0068932 209.3370 150.3890 14.28821448748520
FORMOSAT-3 FM2          
1 29052U 06011F   20213.87989726  .00000014  00000-0  21622-4 0  9992
2 29052  72.0345  78.3824 0041635 288.3688  71.2923 14.28927326746044
GOES 13                 
1 29155U 06018A   20213.87559167  .00000022  00000-0  00000-0 0  9997
2 29155   0.0753 221.0217 0007089 330.4837 135.0251  1.00268399 21846
METOP-A                 
1 29499U 06044A   20213.90503472 -.00000006  00000-0  16479-4 0  9993
2 29499  98.5190 259.1637 0001731 106.3322 230.7438 14.21502874715014
DMSP 5D-3 F17 (USA 191) 
1 29522U 06050A   20213.92285619 -.00000059  00000-0 -79873-5 0  9996
2 29522  98.8008 229.6520 0010814  54.8820 305.3364 14.14014873708992
FENGYUN 3A              
1 32958U 08026A   20213.85730811 -.00000003  00000-0  18296-4 0  9998
2 32958  98.4084 197.3006 0008136 201.2424 158.8416 14.18630083631019
FENGYUN 2E              
1 33463U 08066A   20213.62410472 -.00000222  00000-0  00000-0 0  9990
2 33463   4.4306  68.4224 0003015 304.7204 247.8095  1.00274674 42566
NOAA 19                 
1 33591U 09005A   20213.86658939  .00000057  00000-0  56082-4 0  9994
2 33591  99.1954 220.3696 0013193 314.5780  45.4313 14.12424431591408
GOES 14                 
1 35491U 09033A   20213.60166339 -.00000108  00000-0  00000-0 0  9999
2 35491   0.4243  97.7844 0009530 114.0062 210.0028  1.00270147 40590
METEOR-M 1              
1 35865U 09049A   20213.90985119  .00000011  00000-0  23525-4 0  9992
2 35865  98.4406 199.0665 0003479  70.5929 289.5625 14.22244609564096
DMSP 5D-3 F18 (USA 210) 
1 35951U 09057A   20213.92528345  .00000059  00000-0  54189-4 0  9995
2 35951  98.6464 202.3247 0009920 238.7107 121.3095 14.13288858329968
GOES 15                 
1 36411U 10008A   20213.58168435  .00000040  00000-0  00000-0 0  9996
2 36411   0.0399 231.3787 0002719 214.8129 304.4769  1.00273816 38142
COMS 1                  
1 36744U 10032A   20213.44018615 -.00000360  00000-0  00000+0 0  9996
2 36744   0.0169  76.6504 0001128  38.8573 120.6059  1.00272934 37120
FENGYUN 3B              
1 37214U 10059A   20213.93664740 -.00000012  00000-0  16967-4 0  9996
2 37214  99.0491 196.3646 0017661 138.8674 221.3844 14.15953222503976
SUOMI NPP               
1 37849U 11061A   20213.88121463  .00000000  00000-0  20852-4 0  9992
2 37849  98.7374 151.2117 0001531  95.6428 340.7636 14.19540428453934
FENGYUN 2F              
1 38049U 12002A   20213.86749264 -.00000375  00000-0  00000+0 0  9998
2 38049   2.1636  83.5274 0000493  68.2442 222.1198  1.00278341 31369
METEOSAT-10 (MSG-3)     
1 38552U 12035B   20212.26789542  .00000050  00000-0  00000+0 0  9998
2 38552   1.3732 341.9336 0001751 126.8868 305.5846  1.00265164 29684
METOP-B                 
1 38771U 12049A   20213.84684031 -.00000012  00000-0  14538-4 0  9993
2 38771  98.6887 272.4698 0000734 155.7972 336.2442 14.21501133408335
FENGYUN 3C              
1 39260U 13052A   20213.86531933 -.00000015  00000-0  13379-4 0  9991
2 39260  98.5470 262.4480 0012318  89.1884 271.0702 14.15842378354839
METEOR-M 2              
1 40069U 14037A   20213.77283291 -.00000038  00000-0  19624-5 0  9990
2 40069  98.5001 249.6271 0006151 143.6334 216.5267 14.20673962314504
HIMAWARI-8              
1 40267U 14060A   20213.87333744 -.00000292  00000-0  00000-0 0  9991
2 40267   0.0260 169.9171 0000865 322.9952 272.0763  1.00272286 21237
FENGYUN 2G              
1 40367U 14090A   20213.86513726 -.00000320  00000-0  00000-0 0  9996
2 40367   2.1866  94.0494 0001400 328.7945 298.1172  1.00272241 20515
METEOSAT-11 (MSG-4)     
1 40732U 15034A   20213.84524747 -.00000017  00000-0  00000-0 0  9997
2 40732   0.7364 272.5784 0003326 225.9110 115.8083  1.00274206 18510
ELEKTRO-L 2             
1 41105U 15074A   20204.77966084 -.00000102  00000-0  00000+0 0  9996
2 41105   1.2820  96.7253 0001690  61.0117 139.9802  1.00273046 16901
HIMAWARI-9              
1 41836U 16064A   20213.87333744 -.00000292  00000-0  00000-0 0  9990
2 41836   0.0170  73.2399 0000705  52.4667 279.3976  1.00269170 13662
GOES 16                 
1 41866U 16071A   20213.83024289 -.00000264  00000-0  00000-0 0  9997
2 41866   0.0454 131.9613 0000801  14.6042  27.0150  1.00271432 13593
FENGYUN 4A              
1 41882U 16077A   20213.89007781 -.00000347  00000-0  00000-0 0  9997
2 41882   0.0535  72.9551 0004104  64.7464 237.3399  1.00273553 13463
CYGFM05                 
1 41884U 16078A   20213.91018707  .00000278  00000-0  16465-4 0  9991
2 41884  34.9558 143.7988 0015038  83.1522 277.0900 15.14653192200856
CYGFM04                 
1 41885U 16078B   20213.86545281  .00000275  00000-0  16034-4 0  9997
2 41885  34.9491 137.0324 0013411  93.9130 266.3115 15.15163884200911
CYGFM02                 
1 41886U 16078C   20213.85828352  .00000290  00000-0  16829-4 0  9999
2 41886  34.9582 138.8391 0014150  89.4557 270.7776 15.15164813200904
CYGFM01                 
1 41887U 16078D   20213.88432848  .00000276  00000-0  16398-4 0  9999
2 41887  34.9525 145.1644 0015509  83.5490 276.6987 15.14465644200830
CYGFM08                 
1 41888U 16078E   20213.86389951  .00000291  00000-0  17012-4 0  9995
2 41888  34.9495 140.8878 0014675  90.8206 269.4187 15.14881331200867
CYGFM06                 
1 41889U 16078F   20213.90325553  .00000304  00000-0  17562-4 0  9994
2 41889  34.9577 137.2502 0013108  89.9280 270.2933 15.15158930200912
CYGFM07                 
1 41890U 16078G   20213.88168133  .00000281  00000-0  16364-4 0  9995
2 41890  34.9516 136.4567 0012874  93.2277 266.9907 15.15157552200914
CYGFM03                 
1 41891U 16078H   20213.87722566  .00000270  00000-0  15812-4 0  9996
2 41891  34.9547 136.7430 0012350  91.8219 268.3907 15.15153065200911
FENGYUN 3D              
1 43010U 17072A   20213.83737067 -.00000011  00000-0  15810-4 0  9996
2 43010  98.7530 152.6669 0001163   2.2409 357.8768 14.19746063140498
NOAA 20                 
1 43013U 17073A   20213.83105815 -.00000022  00000-0  10155-4 0  9999
2 43013  98.7187 151.0938 0000943 103.6477 256.4804 14.19558479139953
GOES 17                 
1 43226U 18022A   20213.74614745  .00000082  00000-0  00000+0 0  9995
2 43226   0.0557 241.7486 0000554 240.4764 318.9868  1.00270872  8917
FENGYUN 2H              
1 43491U 18050A   20213.86103718 -.00000140  00000-0  00000-0 0  9993
2 43491   0.5554 272.2127 0003635 227.2508 199.3764  1.00266762  7981
METOP-C                 
1 43689U 18087A   20213.85845147 -.00000010  00000-0  15409-4 0  9999
2 43689  98.6950 272.7995 0001830 183.1456 176.9710 14.21499558 89905
GEO-KOMPSAT-2A          
1 43823U 18100A   20213.87080760 -.00000361  00000-0  00000-0 0  9995
2 43823   0.0205  99.4527 0002453   8.0086 284.2275  1.00269950  6087
IOD-1 GEMS              
1 44385U 98067QK  20213.87005264  .00015813  00000-0  18811-3 0  9994
2 44385  51.6399 108.8947 0002857 123.5192 236.6075 15.61310310 61435
METEOR-M2 2             
1 44387U 19038A   20213.85430092 -.00000036  00000-0  31861-5 0  9990
2 44387  98.6225 173.0231 0002504  95.8908 264.2556 14.23680175 55857
